[{"OBJECT_NAME":"STARLINK-3799","OBJECT_ID":"2022-045BD","EPOCH":"2026-03-09T12:44:10.755456","MEAN_MOTION":15.09112247,"ECCENTRICITY":0.00013442,"INCLINATION":53.2162,"RA_OF_ASC_NODE":189.8374,"ARG_OF_PERICENTER":65.0559,"MEAN_ANOMALY":295.0573,"EPHEMERIS_TYPE":0,"CLASSIFICATION_TYPE":"U","NORAD_CAT_ID":52382,"ELEMENT_SET_NO":999,"REV_AT_EPOCH":21590,"BSTAR":0.00071977404,"MEAN_MOTION_DOT":0.00011271,"MEAN_MOTION_DDOT":0},{"OBJECT_NAME":"KSLV-II R\/B","OBJECT_ID":"2025-274P","EPOCH":"2026-03-09T17:44:44.185056","MEAN_MOTION":14.98166503,"ECCENTRICITY":0.00605567,"INCLINATION":97.7452,"RA_OF_ASC_NODE":0.3618,"ARG_OF_PERICENTER":19.961,"MEAN_ANOMALY":340.3962,"EPHEMERIS_TYPE":0,"CLASSIFICATION_TYPE":"U","NORAD_CAT_ID":66663,"ELEMENT_SET_NO":999,"REV_AT_EPOCH":1543,"BSTAR":0.00059831331,"MEAN_MOTION_DOT":7.309e-5,"MEAN_MOTION_DDOT":0}]
